CS1                     
1 49261U 21088B   26068.75173904  .00015722  00000+0  51176-3 0  9998
2 49261  97.3882 132.1684 0014129  78.0335 282.2490 15.31848439245182
STARLINK-31626          
1 59392U 24062U   26068.82291285 -.00000400  00000+0 -13984-5 0  9996
2 59392  53.1591 254.9130 0001126 104.6706 255.4419 15.30188131109698
